{
  "type": "FeatureCollection",
  "features": [
    {
      "type": "Feature",
      "properties": {
        "norad_id": 34765,
        "name": "IRIDIUM 33 DEB",
        "group": "iridium-33-debris",
        "lat": -63.943836507040196,
        "lon": -143.55789750408465,
        "alt_km": 758.8915527914078,
        "timestamp": "2025-12-21T16:47:55.123767+00:00",
        "meta_object_name": "IRIDIUM 33 DEB",
        "meta_object_id": "1997-051LJ",
        "meta_epoch": "2025-12-21T09:03:14.843232",
        "meta_mean_motion": 14.40485162,
        "meta_eccentricity": 0.0016427,
        "meta_inclination": 86.3383,
        "meta_ra_of_asc_node": 29.0549,
        "meta_arg_of_pericenter": 181.9759,
        "meta_mean_anomaly": 189.6662,
        "meta_ephemeris_type": 0,
        "meta_classification_type": "U",
        "meta_norad_cat_id": 34765,
        "meta_element_set_no": 999,
        "meta_rev_at_epoch": 87738,
        "meta_bstar": 0.00030319,
        "meta_mean_motion_dot": 9.85e-06,
        "meta_mean_motion_ddot": 0,
        "tle_line1": "1 34765U 97051LJ  25355.37725513  .00000985  00000+0  30319-3 0  9990",
        "tle_line2": "2 34765  86.3383  29.0549 0016427 181.9759 189.6662 14.40485162877383"
      },
      "geometry": {
        "type": "Point",
        "coordinates": [
          -143.55789750408465,
          -63.943836507040196
        ]
      }
    },
    {
      "type": "Feature",
      "properties": {
        "norad_id": 34833,
        "name": "IRIDIUM 33 DEB",
        "group": "iridium-33-debris",
        "lat": 13.284900956466089,
        "lon": 47.986010431193286,
        "alt_km": 710.7415217615271,
        "timestamp": "2025-12-21T16:47:55.123777+00:00",
        "meta_object_name": "IRIDIUM 33 DEB",
        "meta_object_id": "1997-051MH",
        "meta_epoch": "2025-12-21T03:45:30.832704",
        "meta_mean_motion": 14.52421073,
        "meta_eccentricity": 0.00214678,
        "meta_inclination": 86.3927,
        "meta_ra_of_asc_node": 47.3667,
        "meta_arg_of_pericenter": 72.8031,
        "meta_mean_anomaly": 341.7014,
        "meta_ephemeris_type": 0,
        "meta_classification_type": "U",
        "meta_norad_cat_id": 34833,
        "meta_element_set_no": 999,
        "meta_rev_at_epoch": 87837,
        "meta_bstar": 0.00044712979,
        "meta_mean_motion_dot": 1.848e-05,
        "meta_mean_motion_ddot": 0,
        "tle_line1": "1 34833U 97051MH  25355.15660686  .00001848  00000+0  44713-3 0  9993",
        "tle_line2": "2 34833  86.3927  47.3667 0021467  72.8031 341.7014 14.52421073878374"
      },
      "geometry": {
        "type": "Point",
        "coordinates": [
          47.986010431193286,
          13.284900956466089
        ]
      }
    },
    {
      "type": "Feature",
      "properties": {
        "norad_id": 34870,
        "name": "IRIDIUM 33 DEB",
        "group": "iridium-33-debris",
        "lat": 41.97517089314172,
        "lon": -46.69206487773418,
        "alt_km": 640.5676249874241,
        "timestamp": "2025-12-21T16:47:55.123787+00:00",
        "meta_object_name": "IRIDIUM 33 DEB",
        "meta_object_id": "1997-051MQ",
        "meta_epoch": "2025-12-17T15:48:12.189024",
        "meta_mean_motion": 14.76525212,
        "meta_eccentricity": 0.00169592,
        "meta_inclination": 86.3102,
        "meta_ra_of_asc_node": 311.8309,
        "meta_arg_of_pericenter": 164.6796,
        "meta_mean_anomaly": 8.9227,
        "meta_ephemeris_type": 0,
        "meta_classification_type": "U",
        "meta_norad_cat_id": 34870,
        "meta_element_set_no": 999,
        "meta_rev_at_epoch": 88983,
        "meta_bstar": 0.0011120343,
        "meta_mean_motion_dot": 7.793e-05,
        "meta_mean_motion_ddot": 0,
        "tle_line1": "1 34870U 97051MQ  25351.65847441  .00007793  00000+0  11120-2 0  9991",
        "tle_line2": "2 34870  86.3102 311.8309 0016959 164.6796   8.9227 14.76525212889837"
      },
      "geometry": {
        "type": "Point",
        "coordinates": [
          -46.69206487773418,
          41.97517089314172
        ]
      }
    },
    {
      "type": "Feature",
      "properties": {
        "norad_id": 34896,
        "name": "IRIDIUM 33 DEB",
        "group": "iridium-33-debris",
        "lat": -83.5209222524539,
        "lon": -71.75492649456588,
        "alt_km": 681.1059050611784,
        "timestamp": "2025-12-21T16:47:55.123812+00:00",
        "meta_object_name": "IRIDIUM 33 DEB",
        "meta_object_id": "1997-051MY",
        "meta_epoch": "2025-12-21T04:08:25.029888",
        "meta_mean_motion": 14.66349827,
        "meta_eccentricity": 0.00253228,
        "meta_inclination": 86.3294,
        "meta_ra_of_asc_node": 322.9021,
        "meta_arg_of_pericenter": 184.0734,
        "meta_mean_anomaly": 188.5608,
        "meta_ephemeris_type": 0,
        "meta_classification_type": "U",
        "meta_norad_cat_id": 34896,
        "meta_element_set_no": 999,
        "meta_rev_at_epoch": 87743,
        "meta_bstar": 0.00055992962,
        "meta_mean_motion_dot": 3.128e-05,
        "meta_mean_motion_ddot": 0,
        "tle_line1": "1 34896U 97051MY  25355.17251192  .00003128  00000+0  55993-3 0  9997",
        "tle_line2": "2 34896  86.3294 322.9021 0025322 184.0734 188.5608 14.66349827877439"
      },
      "geometry": {
        "type": "Point",
        "coordinates": [
          -71.75492649456588,
          -83.5209222524539
        ]
      }
    },
    {
      "type": "Feature",
      "properties": {
        "norad_id": 34926,
        "name": "IRIDIUM 33 DEB",
        "group": "iridium-33-debris",
        "lat": -14.5133792144055,
        "lon": 3.114100165158663,
        "alt_km": 708.6212020238054,
        "timestamp": "2025-12-21T16:47:55.123825+00:00",
        "meta_object_name": "IRIDIUM 33 DEB",
        "meta_object_id": "1997-051NF",
        "meta_epoch": "2025-12-20T01:29:58.203744",
        "meta_mean_motion": 14.54723166,
        "meta_eccentricity": 0.00745564,
        "meta_inclination": 86.1315,
        "meta_ra_of_asc_node": 4.8773,
        "meta_arg_of_pericenter": 267.4346,
        "meta_mean_anomaly": 147.2463,
        "meta_ephemeris_type": 0,
        "meta_classification_type": "U",
        "meta_norad_cat_id": 34926,
        "meta_element_set_no": 999,
        "meta_rev_at_epoch": 86563,
        "meta_bstar": 0.0033633995,
        "meta_mean_motion_dot": 0.00014979,
        "meta_mean_motion_ddot": 0,
        "tle_line1": "1 34926U 97051NF  25354.06247921  .00014979  00000+0  33634-2 0  9996",
        "tle_line2": "2 34926  86.1315   4.8773 0074556 267.4346 147.2463 14.54723166865632"
      },
      "geometry": {
        "type": "Point",
        "coordinates": [
          3.114100165158663,
          -14.5133792144055
        ]
      }
    },
    {
      "type": "Feature",
      "properties": {
        "norad_id": 34985,
        "name": "IRIDIUM 33 DEB",
        "group": "iridium-33-debris",
        "lat": 63.713815001501224,
        "lon": 60.443879870964594,
        "alt_km": 754.6101331096861,
        "timestamp": "2025-12-21T16:47:55.123836+00:00",
        "meta_object_name": "IRIDIUM 33 DEB",
        "meta_object_id": "1997-051NR",
        "meta_epoch": "2025-12-21T03:18:55.645056",
        "meta_mean_motion": 14.42041434,
        "meta_eccentricity": 0.00216435,
        "meta_inclination": 86.369,
        "meta_ra_of_asc_node": 53.2972,
        "meta_arg_of_pericenter": 191.5239,
        "meta_mean_anomaly": 198.031,
        "meta_ephemeris_type": 0,
        "meta_classification_type": "U",
        "meta_norad_cat_id": 34985,
        "meta_element_set_no": 999,
        "meta_rev_at_epoch": 87296,
        "meta_bstar": 0.00042163262,
        "meta_mean_motion_dot": 1.407e-05,
        "meta_mean_motion_ddot": 0,
        "tle_line1": "1 34985U 97051NR  25355.13814404  .00001407  00000+0  42163-3 0  9996",
        "tle_line2": "2 34985  86.3690  53.2972 0021643 191.5239 198.0310 14.42041434872968"
      },
      "geometry": {
        "type": "Point",
        "coordinates": [
          60.443879870964594,
          63.713815001501224
        ]
      }
    },
    {
      "type": "Feature",
      "properties": {
        "norad_id": 35051,
        "name": "IRIDIUM 33 DEB",
        "group": "iridium-33-debris",
        "lat": 2.802921101117778,
        "lon": -175.22355775363778,
        "alt_km": 738.8843826649127,
        "timestamp": "2025-12-21T16:47:55.123846+00:00",
        "meta_object_name": "IRIDIUM 33 DEB",
        "meta_object_id": "1997-051NX",
        "meta_epoch": "2025-12-19T07:34:48.667584",
        "meta_mean_motion": 14.47625509,
        "meta_eccentricity": 0.0010483,
        "meta_inclination": 86.3238,
        "meta_ra_of_asc_node": 5.9957,
        "meta_arg_of_pericenter": 72.9006,
        "meta_mean_anomaly": 287.3345,
        "meta_ephemeris_type": 0,
        "meta_classification_type": "U",
        "meta_norad_cat_id": 35051,
        "meta_element_set_no": 999,
        "meta_rev_at_epoch": 87091,
        "meta_bstar": 0.00045048,
        "meta_mean_motion_dot": 1.68e-05,
        "meta_mean_motion_ddot": 0,
        "tle_line1": "1 35051U 97051NX  25353.31584106  .00001680  00000+0  45048-3 0  9990",
        "tle_line2": "2 35051  86.3238   5.9957 0010483  72.9006 287.3345 14.47625509870911"
      },
      "geometry": {
        "type": "Point",
        "coordinates": [
          -175.22355775363778,
          2.802921101117778
        ]
      }
    }
  ]
}